[{"OBJECT_NAME":"STARLINK-30555","OBJECT_ID":"2023-156N","EPOCH":"2026-03-09T11:52:56.619264","MEAN_MOTION":15.30193734,"ECCENTRICITY":0.00010395,"INCLINATION":53.1602,"RA_OF_ASC_NODE":169.0427,"ARG_OF_PERICENTER":79.1204,"MEAN_ANOMALY":280.9914,"EPHEMERIS_TYPE":0,"CLASSIFICATION_TYPE":"U","NORAD_CAT_ID":58040,"ELEMENT_SET_NO":999,"REV_AT_EPOCH":13500,"BSTAR":-1.4475732e-5,"MEAN_MOTION_DOT":-7.88e-6,"MEAN_MOTION_DDOT":0},{"OBJECT_NAME":"COSMOS 546","OBJECT_ID":"1973-005A","EPOCH":"2026-03-09T21:40:39.247392","MEAN_MOTION":15.29707303,"ECCENTRICITY":0.00147738,"INCLINATION":50.6327,"RA_OF_ASC_NODE":289.914,"ARG_OF_PERICENTER":261.1516,"MEAN_ANOMALY":98.7778,"EPHEMERIS_TYPE":0,"CLASSIFICATION_TYPE":"U","NORAD_CAT_ID":6350,"ELEMENT_SET_NO":999,"REV_AT_EPOCH":92802,"BSTAR":9.142057e-5,"MEAN_MOTION_DOT":2.316e-5,"MEAN_MOTION_DDOT":0}]
